{
  "norad_id": 58801,
  "name": "STARLINK-31170",
  "history": [
    {
      "epoch": "2026-04-14T21:40:05.057184Z",
      "apogee_km": 484.1889016325222,
      "perigee_km": 481.89177945890697,
      "latitude_deg": 1.4312708793149329e-05,
      "longitude_deg": 152.6951552927427,
      "height_km": 482.61402558150695,
      "semi_major_axis_km": 6861.177340545714,
      "eccentricity": 0.0001674,
      "inclination_deg": 43.0017,
      "raan_deg": 320.7888,
      "arg_perigee_deg": 280.2021,
      "mean_anomaly_deg": 79.8642,
      "mean_motion_rev_day": 15.27582924
    },
    {
      "epoch": "2026-04-15T21:12:25.197408Z",
      "apogee_km": 483.71887181057537,
      "perigee_km": 482.3507541510662,
      "latitude_deg": -1.6374414437578097e-05,
      "longitude_deg": 153.10529746714624,
      "height_km": 482.7247435499155,
      "semi_major_axis_km": 6861.1718129808205,
      "eccentricity": 9.97e-05,
      "inclination_deg": 42.9995,
      "raan_deg": 315.2496,
      "arg_perigee_deg": 277.2542,
      "mean_anomaly_deg": 82.8196,
      "mean_motion_rev_day": 15.2758477
    },
    {
      "epoch": "2026-04-16T20:44:46.358016Z",
      "apogee_km": 483.93478381634577,
      "perigee_km": 482.1824344577735,
      "latitude_deg": 1.952590252313689e-05,
      "longitude_deg": 153.51124736332613,
      "height_km": 482.7664888262539,
      "semi_major_axis_km": 6861.195609137059,
      "eccentricity": 0.0001277,
      "inclination_deg": 43.001,
      "raan_deg": 309.7104,
      "arg_perigee_deg": 274.506,
      "mean_anomaly_deg": 85.5646,
      "mean_motion_rev_day": 15.27576823
    },
    {
      "epoch": "2026-04-17T21:51:16.920864Z",
      "apogee_km": 483.986845242257,
      "perigee_km": 482.124168700464,
      "latitude_deg": 1.1785814055719746e-05,
      "longitude_deg": 129.94522618959616,
      "height_km": 482.69088610014785,
      "semi_major_axis_km": 6861.192506971361,
      "eccentricity": 0.00013574,
      "inclination_deg": 43.0004,
      "raan_deg": 303.8029,
      "arg_perigee_deg": 278.7288,
      "mean_anomaly_deg": 81.341,
      "mean_motion_rev_day": 15.27577859
    },
    {
      "epoch": "2026-04-18T19:49:27.761664Z",
      "apogee_km": 483.8917168805756,
      "perigee_km": 482.20112128611345,
      "latitude_deg": -3.171384985596018e-05,
      "longitude_deg": 154.32844728374803,
      "height_km": 482.8106435796679,
      "semi_major_axis_km": 6861.183419083344,
      "eccentricity": 0.0001232,
      "inclination_deg": 43.0019,
      "raan_deg": 298.6336,
      "arg_perigee_deg": 270.8509,
      "mean_anomaly_deg": 89.2201,
      "mean_motion_rev_day": 15.27580894
    },
    {
      "epoch": "2026-04-19T19:21:49.381920Z",
      "apogee_km": 483.8263320125425,
      "perigee_km": 482.30314522656954,
      "latitude_deg": 1.428990684576283e-07,
      "longitude_deg": 154.73186953884314,
      "height_km": 482.5835075131222,
      "semi_major_axis_km": 6861.201738619556,
      "eccentricity": 0.000111,
      "inclination_deg": 43.0067,
      "raan_deg": 293.0938,
      "arg_perigee_deg": 289.8346,
      "mean_anomaly_deg": 70.2386,
      "mean_motion_rev_day": 15.27574776
    },
    {
      "epoch": "2026-04-20T04:46:45.854112Z",
      "apogee_km": 483.81959926250056,
      "perigee_km": 482.33620460070233,
      "latitude_deg": -1.8872576417939938e-05,
      "longitude_deg": 10.894059264839065,
      "height_km": 482.67801769680534,
      "semi_major_axis_km": 6861.214901931601,
      "eccentricity": 0.0001081,
      "inclination_deg": 43.002,
      "raan_deg": 290.878,
      "arg_perigee_deg": 283.7697,
      "mean_anomaly_deg": 76.3034,
      "mean_motion_rev_day": 15.2757038
    },
    {
      "epoch": "2026-04-21T20:00:38.769120Z",
      "apogee_km": 483.86068135843925,
      "perigee_km": 482.150884576924,
      "latitude_deg": -4.796785539967272e-06,
      "longitude_deg": 131.5797161993069,
      "height_km": 482.55281099063063,
      "semi_major_axis_km": 6861.142782967681,
      "eccentricity": 0.0001246,
      "inclination_deg": 43.0025,
      "raan_deg": 281.6453,
      "arg_perigee_deg": 285.5942,
      "mean_anomaly_deg": 74.4772,
      "mean_motion_rev_day": 15.27594465
    },
    {
      "epoch": "2026-04-22T19:33:01.071936Z",
      "apogee_km": 483.9393914624179,
      "perigee_km": 482.19252918871916,
      "latitude_deg": 1.2608217135651365e-05,
      "longitude_deg": 131.980569857756,
      "height_km": 482.69588661622055,
      "semi_major_axis_km": 6861.202960325569,
      "eccentricity": 0.0001273,
      "inclination_deg": 43.0029,
      "raan_deg": 276.1058,
      "arg_perigee_deg": 279.6889,
      "mean_anomaly_deg": 80.3819,
      "mean_motion_rev_day": 15.27574368
    },
    {
      "epoch": "2026-04-23T03:23:47.933664Z",
      "apogee_km": 483.9431021245,
      "perigee_km": 482.18402752369,
      "latitude_deg": -1.4196803601235152e-06,
      "longitude_deg": 12.116458833400946,
      "height_km": 482.6853752233448,
      "semi_major_axis_km": 6861.200564824095,
      "eccentricity": 0.00012819,
      "inclination_deg": 43.0031,
      "raan_deg": 274.2592,
      "arg_perigee_deg": 280.1597,
      "mean_anomaly_deg": 79.911,
      "mean_motion_rev_day": 15.27575168
    },
    {
      "epoch": "2026-04-24T18:37:42.397824Z",
      "apogee_km": 483.4881048080524,
      "perigee_km": 482.7086684681299,
      "latitude_deg": -1.0727800470299276e-05,
      "longitude_deg": 132.7947200882704,
      "height_km": 482.70286109337707,
      "semi_major_axis_km": 6861.235386638091,
      "eccentricity": 5.68e-05,
      "inclination_deg": 43.0021,
      "raan_deg": 265.0256,
      "arg_perigee_deg": 296.1401,
      "mean_anomaly_deg": 63.9392,
      "mean_motion_rev_day": 15.27563539
    },
    {
      "epoch": "2026-04-25T10:19:16.581792Z",
      "apogee_km": 484.09077298245575,
      "perigee_km": 482.0653422974392,
      "latitude_deg": -5.7471953916642304e-05,
      "longitude_deg": -106.93234476741434,
      "height_km": 482.72570540722785,
      "semi_major_axis_km": 6861.215057639947,
      "eccentricity": 0.0001476,
      "inclination_deg": 43.0015,
      "raan_deg": 261.3355,
      "arg_perigee_deg": 277.3353,
      "mean_anomaly_deg": 82.733,
      "mean_motion_rev_day": 15.27570328
    },
    {
      "epoch": "2026-04-26T20:50:41.659008Z",
      "apogee_km": 483.63207785084614,
      "perigee_km": 482.38458440674003,
      "latitude_deg": 4.152477531222823e-06,
      "longitude_deg": 85.67149778937632,
      "height_km": 482.84709407354086,
      "semi_major_axis_km": 6861.145331128793,
      "eccentricity": 9.091e-05,
      "inclination_deg": 42.9984,
      "raan_deg": 253.2116,
      "arg_perigee_deg": 264.2329,
      "mean_anomaly_deg": 95.8419,
      "mean_motion_rev_day": 15.27593614
    },
    {
      "epoch": "2026-04-27T18:48:54.329760Z",
      "apogee_km": 483.6315299141397,
      "perigee_km": 482.5131527914991,
      "latitude_deg": 3.492128870851163e-05,
      "longitude_deg": 110.04695303081267,
      "height_km": 482.8017061465321,
      "semi_major_axis_km": 6861.209341352819,
      "eccentricity": 8.15e-05,
      "inclination_deg": 42.9984,
      "raan_deg": 248.0421,
      "arg_perigee_deg": 274.7856,
      "mean_anomaly_deg": 85.2903,
      "mean_motion_rev_day": 15.27572237
    },
    {
      "epoch": "2026-04-28T16:47:06.495072Z",
      "apogee_km": 483.3755596463816,
      "perigee_km": 482.76628438290663,
      "latitude_deg": -6.165320825411301e-06,
      "longitude_deg": 134.42284336030204,
      "height_km": 482.5441564646195,
      "semi_major_axis_km": 6861.207922014644,
      "eccentricity": 4.44e-05,
      "inclination_deg": 42.9993,
      "raan_deg": 242.871,
      "arg_perigee_deg": 352.7424,
      "mean_anomaly_deg": 7.3421,
      "mean_motion_rev_day": 15.27572711
    },
    {
      "epoch": "2026-04-29T14:45:16.462368Z",
      "apogee_km": 484.32528668558007,
      "perigee_km": 481.68100327370576,
      "latitude_deg": 6.970489114022127e-06,
      "longitude_deg": 158.81037468850505,
      "height_km": 482.6469125360373,
      "semi_major_axis_km": 6861.140144979643,
      "eccentricity": 0.0001927,
      "inclination_deg": 43.0008,
      "raan_deg": 237.7023,
      "arg_perigee_deg": 275.793,
      "mean_anomaly_deg": 84.2702,
      "mean_motion_rev_day": 15.27595346
    },
    {
      "epoch": "2026-04-30T14:17:37.788864Z",
      "apogee_km": 483.64808998337503,
      "perigee_km": 482.43324986513835,
      "latitude_deg": -6.337546532383247e-05,
      "longitude_deg": 159.21531613311947,
      "height_km": 482.7014821863372,
      "semi_major_axis_km": 6861.177669924256,
      "eccentricity": 8.853e-05,
      "inclination_deg": 42.9974,
      "raan_deg": 232.1629,
      "arg_perigee_deg": 280.9292,
      "mean_anomaly_deg": 79.1459,
      "mean_motion_rev_day": 15.27582814
    },
    {
      "epoch": "2026-05-01T18:32:28.664736Z",
      "apogee_km": 483.4299930316929,
      "perigee_km": 482.7682954179427,
      "latitude_deg": 2.2769385465101117e-05,
      "longitude_deg": 87.6963417961802,
      "height_km": 482.9129574844349,
      "semi_major_axis_km": 6861.2361442248175,
      "eccentricity": 4.822e-05,
      "inclination_deg": 42.9973,
      "raan_deg": 225.5159,
      "arg_perigee_deg": 263.3629,
      "mean_anomaly_deg": 96.7168,
      "mean_motion_rev_day": 15.27563286
    },
    {
      "epoch": "2026-05-03T17:37:08.389632Z",
      "apogee_km": 483.54310530644307,
      "perigee_km": 482.52902392749274,
      "latitude_deg": -4.991889516628811e-06,
      "longitude_deg": 88.52007454973611,
      "height_km": 482.6543208607451,
      "semi_major_axis_km": 6861.173064616967,
      "eccentricity": 7.39e-05,
      "inclination_deg": 42.9992,
      "raan_deg": 214.4386,
      "arg_perigee_deg": 288.1288,
      "mean_anomaly_deg": 71.9483,
      "mean_motion_rev_day": 15.27584352
    }
  ]
}